{
"type": "FeatureCollection",
"name": "addresses",
"crs": { "type": "name", "properties": { "name": "urn:ogc:def:crs:OGC:1.3:CRS84" } },
"features": [
{ "type": "Feature", "properties": { "osm_id": 5070425722, "addr:housenumber": "B-1082", "tourism": "hostel", "shop": null, "amenity": null, "name": null, "website": "https:\/\/www.uummannaqseasafaris.gl\/", "name:en": "Guesthouse Tappava", "addr:postcode": "3961", "phone": "+299560703", "email": "info@uummannaqseasafaris.gl", "addr:street": "Qernertunnguamut", "opening_hours": null, "internet_access": null }, "geometry": { "type": "Point", "coordinates": [ -52.1413632, 70.6748398 ] } },
{ "type": "Feature", "properties": { "osm_id": 4571077492, "addr:housenumber": "1365", "tourism": null, "shop": "electronics", "amenity": null, "name": null, "website": null, "name:en": null, "addr:postcode": "3961", "phone": "+299951510", "email": "uelaps@greennet.gl", "addr:street": "Aqqusinertaaq", "opening_hours": "Mo-Fr 08:00-17:00", "internet_access": null }, "geometry": { "type": "Point", "coordinates": [ -52.1317277, 70.6749495 ] } },
{ "type": "Feature", "properties": { "osm_id": 4861974924, "addr:housenumber": "B-34", "tourism": "museum", "shop": null, "amenity": null, "name": null, "website": null, "name:en": "Blubber house", "addr:postcode": null, "phone": null, "email": null, "addr:street": null, "opening_hours": null, "internet_access": null }, "geometry": { "type": "Point", "coordinates": [ -52.1262719, 70.6740833 ] } },
{ "type": "Feature", "properties": { "osm_id": 7919937024, "addr:housenumber": "B-799", "tourism": null, "shop": null, "amenity": "fast_food", "name": null, "website": null, "name:en": null, "addr:postcode": null, "phone": null, "email": null, "addr:street": null, "opening_hours": null, "internet_access": null }, "geometry": { "type": "Point", "coordinates": [ -52.123992, 70.6750238 ] } },
{ "type": "Feature", "properties": { "osm_id": 4663623108, "addr:housenumber": "B-735", "tourism": null, "shop": "seafood", "amenity": null, "name": null, "website": null, "name:en": "Avannaa Seafood", "addr:postcode": null, "phone": null, "email": null, "addr:street": null, "opening_hours": null, "internet_access": null }, "geometry": { "type": "Point", "coordinates": [ -52.1220105, 70.6739037 ] } },
{ "type": "Feature", "properties": { "osm_id": 4336351889, "addr:housenumber": "665", "tourism": null, "shop": null, "amenity": "bar", "name": "Parabolen", "website": null, "name:en": null, "addr:postcode": "3961", "phone": "+299952035", "email": "frits@greennet.gl", "addr:street": "Aqqusinertaaq", "opening_hours": "Mo-Th 15:00-23:00; Fr-Sa 16:00-03:00", "internet_access": null }, "geometry": { "type": "Point", "coordinates": [ -52.1293777, 70.6760508 ] } },
{ "type": "Feature", "properties": { "osm_id": 4336321198, "addr:housenumber": "1362", "tourism": null, "shop": "tyres", "amenity": null, "name": null, "website": null, "name:en": "Rema", "addr:postcode": "3961", "phone": "+299951235", "email": "remaaps@greennet.gl", "addr:street": "Aqqusinertaaq", "opening_hours": "Mo-Fr 08:00-22:00; Sa 09:00-22:00; Su 12:00-22:00", "internet_access": null }, "geometry": { "type": "Point", "coordinates": [ -52.1291908, 70.676305 ] } },
{ "type": "Feature", "properties": { "osm_id": 6353230185, "addr:housenumber": "736", "tourism": null, "shop": null, "amenity": "school", "name": null, "website": null, "name:en": "heldagskole", "addr:postcode": "3961", "phone": null, "email": null, "addr:street": "Aqqusinertaaq", "opening_hours": null, "internet_access": null }, "geometry": { "type": "Point", "coordinates": [ -52.1248881, 70.6773162 ] } },
{ "type": "Feature", "properties": { "osm_id": 4612974390, "addr:housenumber": "B-1308", "tourism": null, "shop": "gift", "amenity": null, "name": "Riina", "website": null, "name:en": null, "addr:postcode": null, "phone": null, "email": null, "addr:street": null, "opening_hours": null, "internet_access": null }, "geometry": { "type": "Point", "coordinates": [ -52.1239467, 70.6751169 ] } },
{ "type": "Feature", "properties": { "osm_id": 8766659819, "addr:housenumber": "B-1213", "tourism": "apartment", "shop": null, "amenity": null, "name": null, "website": null, "name:en": null, "addr:postcode": null, "phone": null, "email": null, "addr:street": "Igaasarissat Aqqutaat", "opening_hours": null, "internet_access": null }, "geometry": { "type": "Point", "coordinates": [ -52.119224, 70.6790925 ] } },
{ "type": "Feature", "properties": { "osm_id": 8766659818, "addr:housenumber": "B-1214", "tourism": "apartment", "shop": null, "amenity": null, "name": null, "website": null, "name:en": null, "addr:postcode": null, "phone": null, "email": null, "addr:street": null, "opening_hours": null, "internet_access": null }, "geometry": { "type": "Point", "coordinates": [ -52.119313, 70.6791863 ] } },
{ "type": "Feature", "properties": { "osm_id": 4575703593, "addr:housenumber": "1293", "tourism": null, "shop": "confectionery", "amenity": null, "name": null, "website": "https:\/\/www.pilersuisoq.gl\/", "name:en": null, "addr:postcode": "3961", "phone": null, "email": null, "addr:street": "Maniillat Qaqqaat", "opening_hours": "Mo-Fr 08:00-22:00; Sa 09:00-22:00; Su 12:00-22:00", "internet_access": null }, "geometry": { "type": "Point", "coordinates": [ -52.1184007, 70.6783754 ] } },
{ "type": "Feature", "properties": { "osm_id": 7728726688, "addr:housenumber": "1364", "tourism": "hostel", "shop": null, "amenity": null, "name": null, "website": "http:\/\/www.greenlandfiordtours.com", "name:en": "Siku hostel", "addr:postcode": "3961", "phone": "00299262626", "email": "info@greenlandfiordtours.com", "addr:street": "maniillat Qaaqqat", "opening_hours": "Mo-Fr 09:00-16:00", "internet_access": "wlan" }, "geometry": { "type": "Point", "coordinates": [ -52.1167169, 70.6810677 ] } }
]
}
